{"type":"FeatureCollection","features":[{"type":"Feature","properties":{"name":"Accra","place":"city"},"geometry":{"type":"Point","coordinates":[-0.20124,5.55711]}},{"type":"Feature","properties":{"name":"Tamale","place":"city"},"geometry":{"type":"Point","coordinates":[-0.8424,9.4052]}},{"type":"Feature","properties":{"name":"Donkorkrom","place":"town"},"geometry":{"type":"Point","coordinates":[-0.08096,7.04711]}},{"type":"Feature","properties":{"name":"Takoradi","place":"town"},"geometry":{"type":"Point","coordinates":[-1.75193,4.8874]}},{"type":"Feature","properties":{"name":"Sekondi","place":"town"},"geometry":{"type":"Point","coordinates":[-1.71279,4.937]}},{"type":"Feature","properties":{"name":"Saltpond","place":"town"},"geometry":{"type":"Point","coordinates":[-1.05742,5.20301]}},{"type":"Feature","properties":{"name":"Elmina","place":"town"},"geometry":{"type":"Point","coordinates":[-1.35058,5.08588]}},{"type":"Feature","properties":{"name":"Kumasi","place":"city"},"geometry":{"type":"Point","coordinates":[-1.62331,6.69856]}},{"type":"Feature","properties":{"name":"Dapaong","place":"city"},"geometry":{"type":"Point","coordinates":[0.20431,10.85955]}},{"type":"Feature","properties":{"name":"Mango","place":"city"},"geometry":{"type":"Point","coordinates":[0.47702,10.35697]}},{"type":"Feature","properties":{"name":"Mampong","place":"town"},"geometry":{"type":"Point","coordinates":[-1.40425,7.05614]}},{"type":"Feature","properties":{"name":"Agnibil\u00e9krou","place":"town"},"geometry":{"type":"Point","coordinates":[-3.20153,7.12799]}},{"type":"Feature","properties":{"name":"P\u00f4","place":"town"},"geometry":{"type":"Point","coordinates":[-1.14324,11.16685]}},{"type":"Feature","properties":{"name":"Yeji","place":"town"},"geometry":{"type":"Point","coordinates":[-0.64891,8.22857]}},{"type":"Feature","properties":{"name":"L\u00e9o","place":"town"},"geometry":{"type":"Point","coordinates":[-2.10476,11.09713]}},{"type":"Feature","properties":{"name":"Wa","place":"city"},"geometry":{"type":"Point","coordinates":[-2.50543,10.06233]}},{"type":"Feature","properties":{"name":"Techiman","place":"city"},"geometry":{"type":"Point","coordinates":[-1.9364,7.58497]}},{"type":"Feature","properties":{"name":"Wenchi","place":"town"},"geometry":{"type":"Point","coordinates":[-2.10352,7.73801]}},{"type":"Feature","properties":{"name":"Hohoe","place":"town"},"geometry":{"type":"Point","coordinates":[0.47774,7.15319]}},{"type":"Feature","properties":{"name":"Boukomb\u00e9","place":"town"},"geometry":{"type":"Point","coordinates":[1.10005,10.18322]}},{"type":"Feature","properties":{"name":"Salaga","place":"town"},"geometry":{"type":"Point","coordinates":[-0.51965,8.55061]}},{"type":"Feature","properties":{"name":"Di\u00e9bougou","place":"town"},"geometry":{"type":"Point","coordinates":[-3.24765,10.96873]}},{"type":"Feature","properties":{"name":"Achimota","place":"town"},"geometry":{"type":"Point","coordinates":[-0.22768,5.6242]}},{"type":"Feature","properties":{"name":"Navrongo","place":"town"},"geometry":{"type":"Point","coordinates":[-1.08837,10.89281]}},{"type":"Feature","properties":{"name":"Pina","place":"town"},"geometry":{"type":"Point","coordinates":[-1.74904,10.88742]}},{"type":"Feature","properties":{"name":"Daffiamah","place":"town"},"geometry":{"type":"Point","coordinates":[-2.56202,10.42034]}},{"type":"Feature","properties":{"name":"Owlo","place":"town"},"geometry":{"type":"Point","coordinates":[-2.52255,10.38838]}},{"type":"Feature","properties":{"name":"Doung","place":"town"},"geometry":{"type":"Point","coordinates":[-2.55001,10.34113]}},{"type":"Feature","properties":{"name":"Kaleo","place":"town"},"geometry":{"type":"Point","coordinates":[-2.54066,10.17379]}},{"type":"Feature","properties":{"name":"Charia","place":"town"},"geometry":{"type":"Point","coordinates":[-2.57456,10.11067]}},{"type":"Feature","properties":{"name":"Hamile","place":"town"},"geometry":{"type":"Point","coordinates":[-2.75073,10.9937]}},{"type":"Feature","properties":{"name":"Bati\u00e9","place":"town"},"geometry":{"type":"Point","coordinates":[-2.92089,9.8766]}},{"type":"Feature","properties":{"name":"Doropo","place":"town"},"geometry":{"type":"Point","coordinates":[-3.34588,9.80952]}},{"type":"Feature","properties":{"name":"Bole","place":"town"},"geometry":{"type":"Point","coordinates":[-2.48951,9.03248]}},{"type":"Feature","properties":{"name":"Han","place":"town"},"geometry":{"type":"Point","coordinates":[-2.44324,10.68989]}},{"type":"Feature","properties":{"name":"Jeffisi","place":"town"},"geometry":{"type":"Point","coordinates":[-2.26602,10.77862]}},{"type":"Feature","properties":{"name":"Funsi","place":"town"},"geometry":{"type":"Point","coordinates":[-1.96866,10.29474]}},{"type":"Feature","properties":{"name":"Yala","place":"town"},"geometry":{"type":"Point","coordinates":[-1.83909,10.12678]}},{"type":"Feature","properties":{"name":"Yagaba","place":"town"},"geometry":{"type":"Point","coordinates":[-1.28359,10.23238]}},{"type":"Feature","properties":{"name":"Loagri","place":"town"},"geometry":{"type":"Point","coordinates":[-1.18506,10.2562]}},{"type":"Feature","properties":{"name":"Monkaringa","place":"town"},"geometry":{"type":"Point","coordinates":[-1.28241,10.03026]}},{"type":"Feature","properties":{"name":"Kayoro","place":"town"},"geometry":{"type":"Point","coordinates":[-1.33251,10.97411]}},{"type":"Feature","properties":{"name":"Bolgatanga","place":"city"},"geometry":{"type":"Point","coordinates":[-0.84873,10.7854]}},{"type":"Feature","properties":{"name":"Wulugu","place":"town"},"geometry":{"type":"Point","coordinates":[-0.79212,10.4715]}},{"type":"Feature","properties":{"name":"Gbimsi","place":"town"},"geometry":{"type":"Point","coordinates":[-0.78544,10.3966]}},{"type":"Feature","properties":{"name":"Langbensi","place":"town"},"geometry":{"type":"Point","coordinates":[-0.56126,10.40346]}},{"type":"Feature","properties":{"name":"Gambaga","place":"town"},"geometry":{"type":"Point","coordinates":[-0.43816,10.53091]}},{"type":"Feature","properties":{"name":"Nalerigu","place":"town"},"geometry":{"type":"Point","coordinates":[-0.37018,10.52551]}},{"type":"Feature","properties":{"name":"Bunkpurugu","place":"town"},"geometry":{"type":"Point","coordinates":[0.09631,10.51879]}},{"type":"Feature","properties":{"name":"Sakogu","place":"town"},"geometry":{"type":"Point","coordinates":[-0.27628,10.57816]}},{"type":"Feature","properties":{"name":"Cinkass\u00e9","place":"town"},"geometry":{"type":"Point","coordinates":[0.01573,11.10107]}},{"type":"Feature","properties":{"name":"Walewale","place":"town"},"geometry":{"type":"Point","coordinates":[-0.80227,10.34769]}},{"type":"Feature","properties":{"name":"Diari","place":"town"},"geometry":{"type":"Point","coordinates":[-0.8721,9.86917]}},{"type":"Feature","properties":{"name":"Pong Tamale","place":"town"},"geometry":{"type":"Point","coordinates":[-0.83196,9.69067]}},{"type":"Feature","properties":{"name":"Savelugu","place":"town"},"geometry":{"type":"Point","coordinates":[-0.82589,9.62606]}},{"type":"Feature","properties":{"name":"Chamba","place":"town"},"geometry":{"type":"Point","coordinates":[-0.13705,8.69486]}},{"type":"Feature","properties":{"name":"Bimbilla","place":"town"},"geometry":{"type":"Point","coordinates":[0.0557,8.85935]}},{"type":"Feature","properties":{"name":"Nakpayili","place":"town"},"geometry":{"type":"Point","coordinates":[0.0545,8.75434]}},{"type":"Feature","properties":{"name":"Wulensi","place":"town"},"geometry":{"type":"Point","coordinates":[0.00129,8.65474]}},{"type":"Feature","properties":{"name":"Lungni","place":"town"},"geometry":{"type":"Point","coordinates":[-0.00639,8.55298]}},{"type":"Feature","properties":{"name":"Kpandai","place":"town"},"geometry":{"type":"Point","coordinates":[-0.01199,8.46358]}},{"type":"Feature","properties":{"name":"Banda","place":"town"},"geometry":{"type":"Point","coordinates":[-0.09244,8.29666]}},{"type":"Feature","properties":{"name":"Buya","place":"town"},"geometry":{"type":"Point","coordinates":[-0.06188,8.35661]}},{"type":"Feature","properties":{"name":"Chinderi","place":"town"},"geometry":{"type":"Point","coordinates":[-0.15304,8.14273]}},{"type":"Feature","properties":{"name":"Borae","place":"town"},"geometry":{"type":"Point","coordinates":[-0.04215,8.16014]}},{"type":"Feature","properties":{"name":"Dambai","place":"town"},"geometry":{"type":"Point","coordinates":[0.17947,8.06761]}},{"type":"Feature","properties":{"name":"Kparepare","place":"town"},"geometry":{"type":"Point","coordinates":[0.28899,7.98059]}},{"type":"Feature","properties":{"name":"Nantwie Kura","place":"town"},"geometry":{"type":"Point","coordinates":[0.29483,7.90017]}},{"type":"Feature","properties":{"name":"Tokuroane","place":"town"},"geometry":{"type":"Point","coordinates":[0.31228,7.78005]}},{"type":"Feature","properties":{"name":"Addo Nkwanta","place":"town"},"geometry":{"type":"Point","coordinates":[0.32401,7.67277]}},{"type":"Feature","properties":{"name":"Asukawkaw","place":"town"},"geometry":{"type":"Point","coordinates":[0.36658,7.68247]}},{"type":"Feature","properties":{"name":"Wawaso","place":"town"},"geometry":{"type":"Point","coordinates":[0.4452,7.6578]}},{"type":"Feature","properties":{"name":"Papase","place":"town"},"geometry":{"type":"Point","coordinates":[0.51061,7.72772]}},{"type":"Feature","properties":{"name":"Ahamasu","place":"town"},"geometry":{"type":"Point","coordinates":[0.55215,7.72925]}},{"type":"Feature","properties":{"name":"Badou","place":"town"},"geometry":{"type":"Point","coordinates":[0.60742,7.58328]}},{"type":"Feature","properties":{"name":"Kadjebi","place":"town"},"geometry":{"type":"Point","coordinates":[0.4761,7.52593]}},{"type":"Feature","properties":{"name":"Asatu","place":"town"},"geometry":{"type":"Point","coordinates":[0.43902,7.53597]}},{"type":"Feature","properties":{"name":"Worawora","place":"town"},"geometry":{"type":"Point","coordinates":[0.37517,7.50959]}},{"type":"Feature","properties":{"name":"Tapa Abotoase","place":"town"},"geometry":{"type":"Point","coordinates":[0.34135,7.4507]}},{"type":"Feature","properties":{"name":"Tapa-Amanfrom","place":"town"},"geometry":{"type":"Point","coordinates":[0.31131,7.41564]}},{"type":"Feature","properties":{"name":"Tapa Abotoase","place":"town"},"geometry":{"type":"Point","coordinates":[0.30393,7.40559]}},{"type":"Feature","properties":{"name":"Kwamikrom","place":"town"},"geometry":{"type":"Point","coordinates":[0.32273,7.29187]}},{"type":"Feature","properties":{"name":"Ahenkro","place":"town"},"geometry":{"type":"Point","coordinates":[0.32213,7.11322]}},{"type":"Feature","properties":{"name":"Ho","place":"city"},"geometry":{"type":"Point","coordinates":[0.46889,6.61266]}},{"type":"Feature","properties":{"name":"Shia","place":"town"},"geometry":{"type":"Point","coordinates":[0.56571,6.79133]}},{"type":"Feature","properties":{"name":"Tokokoe","place":"town"},"geometry":{"type":"Point","coordinates":[0.55828,6.71898]}},{"type":"Feature","properties":{"name":"Sawaba","place":"town"},"geometry":{"type":"Point","coordinates":[-0.79023,8.12676]}},{"type":"Feature","properties":{"name":"Prang","place":"town"},"geometry":{"type":"Point","coordinates":[-0.88338,7.99147]}},{"type":"Feature","properties":{"name":"Atebubu","place":"town"},"geometry":{"type":"Point","coordinates":[-0.98776,7.75352]}},{"type":"Feature","properties":{"name":"Dama Nkwanta","place":"town"},"geometry":{"type":"Point","coordinates":[-1.09179,7.9858]}},{"type":"Feature","properties":{"name":"Kamompa","place":"town"},"geometry":{"type":"Point","coordinates":[-1.27101,8.05923]}},{"type":"Feature","properties":{"name":"Kintampo","place":"town"},"geometry":{"type":"Point","coordinates":[-1.72892,8.05371]}},{"type":"Feature","properties":{"name":"Dorbor","place":"town"},"geometry":{"type":"Point","coordinates":[-2.51641,8.08931]}},{"type":"Feature","properties":{"name":"Sampa","place":"town"},"geometry":{"type":"Point","coordinates":[-2.69494,7.94717]}},{"type":"Feature","properties":{"name":"Suma-Ahenkro","place":"town"},"geometry":{"type":"Point","coordinates":[-2.71568,7.91685]}},{"type":"Feature","properties":{"name":"Duadaso","place":"town"},"geometry":{"type":"Point","coordinates":[-2.63056,7.90317]}},{"type":"Feature","properties":{"name":"Debibi","place":"town"},"geometry":{"type":"Point","coordinates":[-2.54181,7.89603]}},{"type":"Feature","properties":{"name":"Menji","place":"town"},"geometry":{"type":"Point","coordinates":[-2.382,7.92544]}},{"type":"Feature","properties":{"name":"Nsawkaw","place":"town"},"geometry":{"type":"Point","coordinates":[-2.31357,7.87587]}},{"type":"Feature","properties":{"name":"Mayera","place":"town"},"geometry":{"type":"Point","coordinates":[-2.68241,7.86151]}},{"type":"Feature","properties":{"name":"Goka","place":"town"},"geometry":{"type":"Point","coordinates":[-2.65494,7.75896]}},{"type":"Feature","properties":{"name":"Adamsu","place":"town"},"geometry":{"type":"Point","coordinates":[-2.80924,7.7439]}},{"type":"Feature","properties":{"name":"Berekum","place":"town"},"geometry":{"type":"Point","coordinates":[-2.5825,7.45047]}},{"type":"Feature","properties":{"name":"Jinijini","place":"town"},"geometry":{"type":"Point","coordinates":[-2.65013,7.44452]}},{"type":"Feature","properties":{"name":"Wamfie","place":"town"},"geometry":{"type":"Point","coordinates":[-2.70077,7.2976]}},{"type":"Feature","properties":{"name":"Wamanafo","place":"town"},"geometry":{"type":"Point","coordinates":[-2.71639,7.26439]}},{"type":"Feature","properties":{"name":"Nsoatre","place":"town"},"geometry":{"type":"Point","coordinates":[-2.46852,7.40307]}},{"type":"Feature","properties":{"name":"Atronie","place":"town"},"geometry":{"type":"Point","coordinates":[-2.40483,7.15335]}},{"type":"Feature","properties":{"name":"Yamfo","place":"town"},"geometry":{"type":"Point","coordinates":[-2.24038,7.22131]}},{"type":"Feature","properties":{"name":"Tanoso","place":"town"},"geometry":{"type":"Point","coordinates":[-2.24192,7.27801]}},{"type":"Feature","properties":{"name":"Duayaw Nkwanta","place":"town"},"geometry":{"type":"Point","coordinates":[-2.1027,7.17226]}},{"type":"Feature","properties":{"name":"Techimantia","place":"town"},"geometry":{"type":"Point","coordinates":[-2.02649,7.18435]}},{"type":"Feature","properties":{"name":"Bechem","place":"town"},"geometry":{"type":"Point","coordinates":[-2.0246,7.08778]}},{"type":"Feature","properties":{"name":"Pokukrom","place":"town"},"geometry":{"type":"Point","coordinates":[-1.95336,7.00123]}},{"type":"Feature","properties":{"name":"Nyamebekyere","place":"town"},"geometry":{"type":"Point","coordinates":[-1.99356,7.01293]}},{"type":"Feature","properties":{"name":"Fawumang","place":"town"},"geometry":{"type":"Point","coordinates":[-1.92778,6.96613]}},{"type":"Feature","properties":{"name":"Kunso","place":"town"},"geometry":{"type":"Point","coordinates":[-1.88881,6.82843]}},{"type":"Feature","properties":{"name":"Barniekrom","place":"town"},"geometry":{"type":"Point","coordinates":[-1.9533,6.8794]}},{"type":"Feature","properties":{"name":"Anyinasuso","place":"town"},"geometry":{"type":"Point","coordinates":[-2.09596,6.95613]}},{"type":"Feature","properties":{"name":"Tepa","place":"town"},"geometry":{"type":"Point","coordinates":[-2.16382,7.00481]}},{"type":"Feature","properties":{"name":"New Brosankro","place":"town"},"geometry":{"type":"Point","coordinates":[-2.10082,7.03326]}},{"type":"Feature","properties":{"name":"Acherensua","place":"town"},"geometry":{"type":"Point","coordinates":[-2.29462,6.97939]}},{"type":"Feature","properties":{"name":"Chiraa","place":"town"},"geometry":{"type":"Point","coordinates":[-2.18215,7.39475]}},{"type":"Feature","properties":{"name":"Nkoranza","place":"town"},"geometry":{"type":"Point","coordinates":[-1.70393,7.56249]}},{"type":"Feature","properties":{"name":"Nkwaben","place":"town"},"geometry":{"type":"Point","coordinates":[-1.73952,7.49616]}},{"type":"Feature","properties":{"name":"Akropong","place":"town"},"geometry":{"type":"Point","coordinates":[-1.69918,7.50773]}},{"type":"Feature","properties":{"name":"Donkro Nkwanta","place":"town"},"geometry":{"type":"Point","coordinates":[-1.65833,7.43063]}},{"type":"Feature","properties":{"name":"Sekyedumase","place":"town"},"geometry":{"type":"Point","coordinates":[-1.5773,7.31112]}},{"type":"Feature","properties":{"name":"Anyinasu","place":"town"},"geometry":{"type":"Point","coordinates":[-1.57696,7.23705]}},{"type":"Feature","properties":{"name":"Kofiase","place":"town"},"geometry":{"type":"Point","coordinates":[-1.48787,7.14065]}},{"type":"Feature","properties":{"name":"Kwame Danso","place":"town"},"geometry":{"type":"Point","coordinates":[-0.67659,7.73215]}},{"type":"Feature","properties":{"name":"Kajaji","place":"town"},"geometry":{"type":"Point","coordinates":[-0.22804,7.7842]}},{"type":"Feature","properties":{"name":"Ntewusae","place":"town"},"geometry":{"type":"Point","coordinates":[0.00547,7.98945]}},{"type":"Feature","properties":{"name":"Katchebi","place":"town"},"geometry":{"type":"Point","coordinates":[0.39509,8.20001]}},{"type":"Feature","properties":{"name":"Nkwanta","place":"town"},"geometry":{"type":"Point","coordinates":[0.52143,8.2627]}},{"type":"Feature","properties":{"name":"Tutukpene","place":"town"},"geometry":{"type":"Point","coordinates":[0.3944,8.09635]}},{"type":"Feature","properties":{"name":"Katanga","place":"town"},"geometry":{"type":"Point","coordinates":[0.33827,7.65322]}},{"type":"Feature","properties":{"name":"Kp\u00e9t\u00e9 B\u00e9na","place":"town"},"geometry":{"type":"Point","coordinates":[0.60417,7.44135]}},{"type":"Feature","properties":{"name":"Amlam\u00e9","place":"town"},"geometry":{"type":"Point","coordinates":[0.90424,7.46178]}},{"type":"Feature","properties":{"name":"Agadji","place":"town"},"geometry":{"type":"Point","coordinates":[0.87562,7.40893]}},{"type":"Feature","properties":{"name":"Kant\u00e9","place":"town"},"geometry":{"type":"Point","coordinates":[1.04362,9.95586]}},{"type":"Feature","properties":{"name":"Bassar","place":"town"},"geometry":{"type":"Point","coordinates":[0.77903,9.26204]}},{"type":"Feature","properties":{"name":"Kabou","place":"town"},"geometry":{"type":"Point","coordinates":[0.81196,9.45605]}},{"type":"Feature","properties":{"name":"Bonakye","place":"town"},"geometry":{"type":"Point","coordinates":[0.40762,8.40059]}},{"type":"Feature","properties":{"name":"Kpassa","place":"town"},"geometry":{"type":"Point","coordinates":[0.30947,8.4893]}},{"type":"Feature","properties":{"name":"Sibi","place":"town"},"geometry":{"type":"Point","coordinates":[0.23708,8.59336]}},{"type":"Feature","properties":{"name":"Damanko","place":"town"},"geometry":{"type":"Point","coordinates":[0.1812,8.69189]}},{"type":"Feature","properties":{"name":"Mandouri","place":"town"},"geometry":{"type":"Point","coordinates":[0.81782,10.85002]}},{"type":"Feature","properties":{"name":"Axim","place":"town"},"geometry":{"type":"Point","coordinates":[-2.24217,4.86536]}},{"type":"Feature","properties":{"name":"Tarkwa","place":"town"},"geometry":{"type":"Point","coordinates":[-1.99243,5.31093]}},{"type":"Feature","properties":{"name":"Enchi","place":"town"},"geometry":{"type":"Point","coordinates":[-2.82371,5.82318]}},{"type":"Feature","properties":{"name":"Asankrangwa","place":"town"},"geometry":{"type":"Point","coordinates":[-2.43527,5.80867]}},{"type":"Feature","properties":{"name":"Awaso","place":"town"},"geometry":{"type":"Point","coordinates":[-2.28457,6.24253]}},{"type":"Feature","properties":{"name":"Sefwi Bekwai","place":"town"},"geometry":{"type":"Point","coordinates":[-2.3227,6.19461]}},{"type":"Feature","properties":{"name":"Asawinso","place":"town"},"geometry":{"type":"Point","coordinates":[-2.70907,6.42433]}},{"type":"Feature","properties":{"name":"Goaso","place":"town"},"geometry":{"type":"Point","coordinates":[-2.51724,6.80355]}},{"type":"Feature","properties":{"name":"Derma","place":"town"},"geometry":{"type":"Point","coordinates":[-1.94161,7.21076]}},{"type":"Feature","properties":{"name":"Jema","place":"town"},"geometry":{"type":"Point","coordinates":[-1.76966,7.89868]}},{"type":"Feature","properties":{"name":"Jamasi","place":"town"},"geometry":{"type":"Point","coordinates":[-1.47438,6.97329]}},{"type":"Feature","properties":{"name":"Beposo","place":"town"},"geometry":{"type":"Point","coordinates":[-1.35233,6.98112]}},{"type":"Feature","properties":{"name":"Agona","place":"town"},"geometry":{"type":"Point","coordinates":[-1.49003,6.93274]}},{"type":"Feature","properties":{"name":"Effiduase","place":"town"},"geometry":{"type":"Point","coordinates":[-1.39538,6.85063]}},{"type":"Feature","properties":{"name":"Juaben","place":"town"},"geometry":{"type":"Point","coordinates":[-1.42151,6.81565]}},{"type":"Feature","properties":{"name":"Bouna","place":"town"},"geometry":{"type":"Point","coordinates":[-2.99898,9.26872]}},{"type":"Feature","properties":{"name":"Bombouaka","place":"town"},"geometry":{"type":"Point","coordinates":[0.20992,10.70302]}},{"type":"Feature","properties":{"name":"Korbongou","place":"town"},"geometry":{"type":"Point","coordinates":[0.31137,10.91412]}},{"type":"Feature","properties":{"name":"Cinkans\u00e9","place":"town"},"geometry":{"type":"Point","coordinates":[0.00671,11.11824]}},{"type":"Feature","properties":{"name":"Nano","place":"town"},"geometry":{"type":"Point","coordinates":[0.10935,10.70206]}},{"type":"Feature","properties":{"name":"Blitta","place":"town"},"geometry":{"type":"Point","coordinates":[1.01041,8.34385]}},{"type":"Feature","properties":{"name":"Sotouboua","place":"town"},"geometry":{"type":"Point","coordinates":[0.97586,8.56194]}},{"type":"Feature","properties":{"name":"Adjengr\u00e9","place":"town"},"geometry":{"type":"Point","coordinates":[1.01682,8.66129]}},{"type":"Feature","properties":{"name":"Tema","place":"city"},"geometry":{"type":"Point","coordinates":[-0.00968,5.65964]}},{"type":"Feature","properties":{"name":"Dodowa","place":"town"},"geometry":{"type":"Point","coordinates":[-0.10466,5.88003]}},{"type":"Feature","properties":{"name":"Kpong","place":"town"},"geometry":{"type":"Point","coordinates":[0.0604,6.15735]}},{"type":"Feature","properties":{"name":"Somanya","place":"town"},"geometry":{"type":"Point","coordinates":[-0.01483,6.10482]}},{"type":"Feature","properties":{"name":"Kpetoe","place":"town"},"geometry":{"type":"Point","coordinates":[0.69721,6.5472]}},{"type":"Feature","properties":{"name":"Kpone","place":"town"},"geometry":{"type":"Point","coordinates":[0.05702,5.68969]}},{"type":"Feature","properties":{"name":"Daffor","place":"town"},"geometry":{"type":"Point","coordinates":[0.28359,6.5856]}},{"type":"Feature","properties":{"name":"Juapong","place":"town"},"geometry":{"type":"Point","coordinates":[0.13525,6.2545]}},{"type":"Feature","properties":{"name":"Kuntanase","place":"town"},"geometry":{"type":"Point","coordinates":[-1.47681,6.54085]}},{"type":"Feature","properties":{"name":"Nandom","place":"town"},"geometry":{"type":"Point","coordinates":[-2.76008,10.85207]}},{"type":"Feature","properties":{"name":"Dissin","place":"town"},"geometry":{"type":"Point","coordinates":[-2.91898,10.94317]}},{"type":"Feature","properties":{"name":"Boura","place":"town"},"geometry":{"type":"Point","coordinates":[-2.50231,11.04087]}},{"type":"Feature","properties":{"name":"Dano","place":"town"},"geometry":{"type":"Point","coordinates":[-3.06379,11.14356]}},{"type":"Feature","properties":{"name":"Koun-Fao","place":"town"},"geometry":{"type":"Point","coordinates":[-3.25175,7.488]}},{"type":"Feature","properties":{"name":"Tanda","place":"town"},"geometry":{"type":"Point","coordinates":[-3.16725,7.80366]}},{"type":"Feature","properties":{"name":"Akomadan","place":"town"},"geometry":{"type":"Point","coordinates":[-1.95438,7.3972]}},{"type":"Feature","properties":{"name":"Konongo","place":"town"},"geometry":{"type":"Point","coordinates":[-1.21481,6.62315]}},{"type":"Feature","properties":{"name":"Krobo","place":"town"},"geometry":{"type":"Point","coordinates":[0.00124,6.12995]}},{"type":"Feature","properties":{"name":"Koforidua","place":"city"},"geometry":{"type":"Point","coordinates":[-0.26146,6.10033]}},{"type":"Feature","properties":{"name":"Ziou","place":"town"},"geometry":{"type":"Point","coordinates":[-0.78571,11.04223]}},{"type":"Feature","properties":{"name":"Koper","place":"town"},"geometry":{"type":"Point","coordinates":[-2.92901,11.09682]}},{"type":"Feature","properties":{"name":"Boussoukoula","place":"town"},"geometry":{"type":"Point","coordinates":[-3.08805,9.8349]}},{"type":"Feature","properties":{"name":"Ada Foah","place":"town"},"geometry":{"type":"Point","coordinates":[0.6332,5.78164]}},{"type":"Feature","properties":{"name":"Big Ada","place":"town"},"geometry":{"type":"Point","coordinates":[0.61487,5.81696]}},{"type":"Feature","properties":{"name":"Anyanui","place":"town"},"geometry":{"type":"Point","coordinates":[0.72574,5.78271]}},{"type":"Feature","properties":{"name":"Anloga","place":"town"},"geometry":{"type":"Point","coordinates":[0.89847,5.79365]}},{"type":"Feature","properties":{"name":"Dixcove","place":"town"},"geometry":{"type":"Point","coordinates":[-1.9464,4.79479]}},{"type":"Feature","properties":{"name":"Feyito","place":"town"},"geometry":{"type":"Point","coordinates":[0.53239,5.96594]}},{"type":"Feature","properties":{"name":"Tojeh","place":"town"},"geometry":{"type":"Point","coordinates":[0.52454,5.95482]}},{"type":"Feature","properties":{"name":"Jukwa","place":"town"},"geometry":{"type":"Point","coordinates":[-1.3388,5.25778]}},{"type":"Feature","properties":{"name":"Mankessim","place":"town"},"geometry":{"type":"Point","coordinates":[-1.01803,5.26717]}},{"type":"Feature","properties":{"name":"Awutu Bereku","place":"town"},"geometry":{"type":"Point","coordinates":[-0.51266,5.51265]}},{"type":"Feature","properties":{"name":"Matse","place":"town"},"geometry":{"type":"Point","coordinates":[0.48398,6.69506]}},{"type":"Feature","properties":{"name":"Buduburam","place":"town"},"geometry":{"type":"Point","coordinates":[-0.47763,5.5235]}},{"type":"Feature","properties":{"name":"Sogakope","place":"town"},"geometry":{"type":"Point","coordinates":[0.59513,5.99891]}},{"type":"Feature","properties":{"name":"Tefle","place":"town"},"geometry":{"type":"Point","coordinates":[0.56206,6.00364]}},{"type":"Feature","properties":{"name":"Bornikope","place":"town"},"geometry":{"type":"Point","coordinates":[0.40203,5.8446]}},{"type":"Feature","properties":{"name":"Cape Coast","place":"city"},"geometry":{"type":"Point","coordinates":[-1.24171,5.10809]}},{"type":"Feature","properties":{"name":"Aviefe","place":"town"},"geometry":{"type":"Point","coordinates":[0.47526,6.66737]}},{"type":"Feature","properties":{"name":"Kpotame","place":"town"},"geometry":{"type":"Point","coordinates":[0.52635,5.98303]}},{"type":"Feature","properties":{"name":"Kasoa","place":"town"},"geometry":{"type":"Point","coordinates":[-0.43749,5.53257]}},{"type":"Feature","properties":{"name":"Vume","place":"town"},"geometry":{"type":"Point","coordinates":[0.55395,6.00788]}},{"type":"Feature","properties":{"name":"Tegbi","place":"town"},"geometry":{"type":"Point","coordinates":[0.97337,5.85367]}},{"type":"Feature","properties":{"name":"Efutu","place":"town"},"geometry":{"type":"Point","coordinates":[-1.32041,5.20219]}},{"type":"Feature","properties":{"name":"Adiak\u00e9","place":"town"},"geometry":{"type":"Point","coordinates":[-3.30201,5.28684]}},{"type":"Feature","properties":{"name":"Krinjabo","place":"town"},"geometry":{"type":"Point","coordinates":[-3.21222,5.3961]}},{"type":"Feature","properties":{"name":"Akatsi","place":"town"},"geometry":{"type":"Point","coordinates":[0.79821,6.13102]}},{"type":"Feature","properties":{"name":"Dzodze","place":"town"},"geometry":{"type":"Point","coordinates":[0.99401,6.23381]}},{"type":"Feature","properties":{"name":"Agona Swedru","place":"town"},"geometry":{"type":"Point","coordinates":[-0.70076,5.53445]}},{"type":"Feature","properties":{"name":"Ashaiman","place":"town"},"geometry":{"type":"Point","coordinates":[-0.02953,5.69438]}},{"type":"Feature","properties":{"name":"Aboisso","place":"town"},"geometry":{"type":"Point","coordinates":[-3.20662,5.46749]}},{"type":"Feature","properties":{"name":"Assinie-Mafia","place":"town"},"geometry":{"type":"Point","coordinates":[-3.29166,5.13508]}},{"type":"Feature","properties":{"name":"Gagbiri","place":"town"},"geometry":{"type":"Point","coordinates":[-0.11656,10.90057]}},{"type":"Feature","properties":{"name":"Akroso","place":"town"},"geometry":{"type":"Point","coordinates":[-0.76797,5.77215]}},{"type":"Feature","properties":{"name":"Duu","place":"town"},"geometry":{"type":"Point","coordinates":[-0.98837,10.50044]}},{"type":"Feature","properties":{"name":"Gomoa Afransi","place":"town"},"geometry":{"type":"Point","coordinates":[-0.74847,5.50836]}},{"type":"Feature","properties":{"name":"Gu\u00e9rin-Kouka","place":"town"},"geometry":{"type":"Point","coordinates":[0.61083,9.68853]}},{"type":"Feature","properties":{"name":"Adeiso","place":"town"},"geometry":{"type":"Point","coordinates":[-0.48724,5.79713]}},{"type":"Feature","properties":{"name":"Vakpo","place":"town"},"geometry":{"type":"Point","coordinates":[0.28471,6.85643]}},{"type":"Feature","properties":{"name":"Agogo","place":"town"},"geometry":{"type":"Point","coordinates":[-1.08473,6.80087]}},{"type":"Feature","properties":{"name":"Domeabra","place":"town"},"geometry":{"type":"Point","coordinates":[-1.13972,6.72236]}},{"type":"Feature","properties":{"name":"Juansa","place":"town"},"geometry":{"type":"Point","coordinates":[-1.13009,6.71625]}},{"type":"Feature","properties":{"name":"Juaso","place":"town"},"geometry":{"type":"Point","coordinates":[-1.11939,6.58338]}},{"type":"Feature","properties":{"name":"Nkwantanang","place":"town"},"geometry":{"type":"Point","coordinates":[-0.8739,6.16861]}},{"type":"Feature","properties":{"name":"Badu","place":"town"},"geometry":{"type":"Point","coordinates":[-2.23284,7.69464]}},{"type":"Feature","properties":{"name":"Bugubelle","place":"town"},"geometry":{"type":"Point","coordinates":[-1.97408,10.57732]}},{"type":"Feature","properties":{"name":"Dunkwa-on-Offin","place":"town"},"geometry":{"type":"Point","coordinates":[-1.78734,5.96788]}},{"type":"Feature","properties":{"name":"Buipe","place":"town"},"geometry":{"type":"Point","coordinates":[-1.4682,8.78942]}},{"type":"Feature","properties":{"name":"Chereponi","place":"town"},"geometry":{"type":"Point","coordinates":[0.29001,10.13851]}},{"type":"Feature","properties":{"name":"Gbintiri","place":"town"},"geometry":{"type":"Point","coordinates":[0.06351,10.13307]}},{"type":"Feature","properties":{"name":"Kaparigu","place":"town"},"geometry":{"type":"Point","coordinates":[-0.6345,10.29514]}},{"type":"Feature","properties":{"name":"Fomena","place":"town"},"geometry":{"type":"Point","coordinates":[-1.51245,6.28104]}},{"type":"Feature","properties":{"name":"Asiwa","place":"town"},"geometry":{"type":"Point","coordinates":[-1.33143,6.42676]}},{"type":"Feature","properties":{"name":"Boako","place":"town"},"geometry":{"type":"Point","coordinates":[-2.56757,6.39804]}},{"type":"Feature","properties":{"name":"Adweso","place":"town"},"geometry":{"type":"Point","coordinates":[-0.24927,6.06334]}},{"type":"Feature","properties":{"name":"Okrakwadwo","place":"town"},"geometry":{"type":"Point","coordinates":[-0.10743,6.11139]}},{"type":"Feature","properties":{"name":"Oyoko","place":"town"},"geometry":{"type":"Point","coordinates":[-0.28823,6.13722]}},{"type":"Feature","properties":{"name":"Aburi","place":"town"},"geometry":{"type":"Point","coordinates":[-0.17527,5.84748]}},{"type":"Feature","properties":{"name":"Patriensa","place":"town"},"geometry":{"type":"Point","coordinates":[-1.17894,6.66196]}},{"type":"Feature","properties":{"name":"Abasi","place":"town"},"geometry":{"type":"Point","coordinates":[-1.23572,6.89525]}},{"type":"Feature","properties":{"name":"Bawjiase","place":"town"},"geometry":{"type":"Point","coordinates":[-0.55617,5.68374]}},{"type":"Feature","properties":{"name":"Asamankese","place":"town"},"geometry":{"type":"Point","coordinates":[-0.65793,5.86101]}},{"type":"Feature","properties":{"name":"New Edubiase","place":"town"},"geometry":{"type":"Point","coordinates":[-1.39184,6.06106]}},{"type":"Feature","properties":{"name":"Mafi Kumase","place":"town"},"geometry":{"type":"Point","coordinates":[0.57094,6.27139]}},{"type":"Feature","properties":{"name":"Sefwi Wiawso","place":"town"},"geometry":{"type":"Point","coordinates":[-2.48823,6.20529]}},{"type":"Feature","properties":{"name":"Akrodie","place":"town"},"geometry":{"type":"Point","coordinates":[-2.55442,6.69428]}},{"type":"Feature","properties":{"name":"Mim","place":"town"},"geometry":{"type":"Point","coordinates":[-2.55769,6.90276]}},{"type":"Feature","properties":{"name":"Kukuom","place":"town"},"geometry":{"type":"Point","coordinates":[-2.44327,6.69432]}},{"type":"Feature","properties":{"name":"Ammasu","place":"town"},"geometry":{"type":"Point","coordinates":[-2.78596,7.2235]}},{"type":"Feature","properties":{"name":"Kyeremasu","place":"town"},"geometry":{"type":"Point","coordinates":[-2.75852,7.26302]}},{"type":"Feature","properties":{"name":"Odumase","place":"town"},"geometry":{"type":"Point","coordinates":[-2.31256,7.3683]}},{"type":"Feature","properties":{"name":"Nkrankwanta","place":"town"},"geometry":{"type":"Point","coordinates":[-3.0442,7.02572]}},{"type":"Feature","properties":{"name":"Wechiau","place":"town"},"geometry":{"type":"Point","coordinates":[-2.68244,9.82957]}},{"type":"Feature","properties":{"name":"Kpongu","place":"town"},"geometry":{"type":"Point","coordinates":[-2.51383,9.99591]}},{"type":"Feature","properties":{"name":"Kpatinga","place":"town"},"geometry":{"type":"Point","coordinates":[-0.27391,9.77004]}},{"type":"Feature","properties":{"name":"Kpalbe","place":"town"},"geometry":{"type":"Point","coordinates":[-0.55288,9.11512]}},{"type":"Feature","properties":{"name":"Amantin","place":"town"},"geometry":{"type":"Point","coordinates":[-1.20302,7.54218]}},{"type":"Feature","properties":{"name":"Achiase","place":"town"},"geometry":{"type":"Point","coordinates":[-0.99669,5.83545]}},{"type":"Feature","properties":{"name":"Manso","place":"town"},"geometry":{"type":"Point","coordinates":[-0.88449,5.90543]}},{"type":"Feature","properties":{"name":"Akim Oda","place":"town"},"geometry":{"type":"Point","coordinates":[-0.98543,5.92044]}},{"type":"Feature","properties":{"name":"Abuesi","place":"town"},"geometry":{"type":"Point","coordinates":[-1.63701,4.98296]}},{"type":"Feature","properties":{"name":"Ajumako","place":"town"},"geometry":{"type":"Point","coordinates":[-0.95852,5.42792]}},{"type":"Feature","properties":{"name":"Biseasi","place":"town"},"geometry":{"type":"Point","coordinates":[-0.97603,5.45892]}},{"type":"Feature","properties":{"name":"Boinso","place":"town"},"geometry":{"type":"Point","coordinates":[-2.72124,5.55485]}},{"type":"Feature","properties":{"name":"Breman Asikuma","place":"town"},"geometry":{"type":"Point","coordinates":[-0.99897,5.58161]}},{"type":"Feature","properties":{"name":"Omanpe","place":"town"},"geometry":{"type":"Point","coordinates":[-2.73428,5.6108]}},{"type":"Feature","properties":{"name":"Kwawu","place":"town"},"geometry":{"type":"Point","coordinates":[-2.74422,5.66913]}},{"type":"Feature","properties":{"name":"Kwapong","place":"town"},"geometry":{"type":"Point","coordinates":[-2.47883,6.61671]}},{"type":"Feature","properties":{"name":"Esiam","place":"town"},"geometry":{"type":"Point","coordinates":[-0.98298,5.41193]}},{"type":"Feature","properties":{"name":"Winneba","place":"town"},"geometry":{"type":"Point","coordinates":[-0.62134,5.35006]}},{"type":"Feature","properties":{"name":"Nyakrom","place":"town"},"geometry":{"type":"Point","coordinates":[-0.78888,5.61156]}},{"type":"Feature","properties":{"name":"Ateiku","place":"town"},"geometry":{"type":"Point","coordinates":[-1.69074,5.56234]}},{"type":"Feature","properties":{"name":"Benso","place":"town"},"geometry":{"type":"Point","coordinates":[-1.89375,5.1604]}},{"type":"Feature","properties":{"name":"Bepoh","place":"town"},"geometry":{"type":"Point","coordinates":[-2.06063,5.60293]}},{"type":"Feature","properties":{"name":"Bogoso","place":"town"},"geometry":{"type":"Point","coordinates":[-2.00549,5.56867]}},{"type":"Feature","properties":{"name":"Damang","place":"town"},"geometry":{"type":"Point","coordinates":[-1.86347,5.51419]}},{"type":"Feature","properties":{"name":"Nsuta","place":"town"},"geometry":{"type":"Point","coordinates":[-1.98213,5.27337]}},{"type":"Feature","properties":{"name":"Diaso","place":"town"},"geometry":{"type":"Point","coordinates":[-2.15301,6.15313]}},{"type":"Feature","properties":{"name":"Bibiani","place":"town"},"geometry":{"type":"Point","coordinates":[-2.31496,6.45294]}},{"type":"Feature","properties":{"name":"Nyinahin","place":"town"},"geometry":{"type":"Point","coordinates":[-2.11679,6.59923]}},{"type":"Feature","properties":{"name":"Agogoso","place":"town"},"geometry":{"type":"Point","coordinates":[-2.06601,6.6063]}},{"type":"Feature","properties":{"name":"Manso Atwere","place":"town"},"geometry":{"type":"Point","coordinates":[-1.85751,6.45744]}},{"type":"Feature","properties":{"name":"Jirapa","place":"town"},"geometry":{"type":"Point","coordinates":[-2.70086,10.53663]}},{"type":"Feature","properties":{"name":"Sandema","place":"town"},"geometry":{"type":"Point","coordinates":[-1.28672,10.73538]}},{"type":"Feature","properties":{"name":"Yendi","place":"city"},"geometry":{"type":"Point","coordinates":[-0.00351,9.44665]}},{"type":"Feature","properties":{"name":"Nadowli","place":"town"},"geometry":{"type":"Point","coordinates":[-2.66419,10.37202]}},{"type":"Feature","properties":{"name":"Lawra","place":"town"},"geometry":{"type":"Point","coordinates":[-2.89314,10.64283]}},{"type":"Feature","properties":{"name":"Tuobodom","place":"town"},"geometry":{"type":"Point","coordinates":[-1.90386,7.63974]}},{"type":"Feature","properties":{"name":"Ejura","place":"town"},"geometry":{"type":"Point","coordinates":[-1.35594,7.38468]}},{"type":"Feature","properties":{"name":"Kpasenkpe","place":"town"},"geometry":{"type":"Point","coordinates":[-1.0492,10.44318]}},{"type":"Feature","properties":{"name":"Paga","place":"town"},"geometry":{"type":"Point","coordinates":[-1.10167,10.97004]}},{"type":"Feature","properties":{"name":"Ts\u00e9vi\u00e9","place":"city"},"geometry":{"type":"Point","coordinates":[1.21047,6.42312]}},{"type":"Feature","properties":{"name":"Gaoua","place":"town"},"geometry":{"type":"Point","coordinates":[-3.17957,10.33033]}},{"type":"Feature","properties":{"name":"Damongo","place":"town"},"geometry":{"type":"Point","coordinates":[-1.82008,9.08506]}},{"type":"Feature","properties":{"name":"Ani\u00e9","place":"town"},"geometry":{"type":"Point","coordinates":[1.19653,7.75941]}},{"type":"Feature","properties":{"name":"Blitta-Gare","place":"town"},"geometry":{"type":"Point","coordinates":[0.97752,8.32416]}},{"type":"Feature","properties":{"name":"Kpalim\u00e9","place":"city"},"geometry":{"type":"Point","coordinates":[0.6324,6.91066]}},{"type":"Feature","properties":{"name":"Nots\u00e9","place":"town"},"geometry":{"type":"Point","coordinates":[1.1703,6.94802]}},{"type":"Feature","properties":{"name":"Niamtougou","place":"town"},"geometry":{"type":"Point","coordinates":[1.10841,9.76628]}},{"type":"Feature","properties":{"name":"Sokod\u00e9","place":"city"},"geometry":{"type":"Point","coordinates":[1.14376,8.98343]}},{"type":"Feature","properties":{"name":"Zabzugu","place":"town"},"geometry":{"type":"Point","coordinates":[0.36706,9.29406]}},{"type":"Feature","properties":{"name":"Gushegu","place":"town"},"geometry":{"type":"Point","coordinates":[-0.21647,9.9185]}},{"type":"Feature","properties":{"name":"Nakpanduri","place":"town"},"geometry":{"type":"Point","coordinates":[-0.18012,10.6322]}},{"type":"Feature","properties":{"name":"Bawku","place":"town"},"geometry":{"type":"Point","coordinates":[-0.24229,11.06076]}},{"type":"Feature","properties":{"name":"Begoro","place":"town"},"geometry":{"type":"Point","coordinates":[-0.37633,6.38479]}},{"type":"Feature","properties":{"name":"Half Assini","place":"town"},"geometry":{"type":"Point","coordinates":[-2.88517,5.05135]}},{"type":"Feature","properties":{"name":"Kete Krachi","place":"town"},"geometry":{"type":"Point","coordinates":[-0.04914,7.79844]}},{"type":"Feature","properties":{"name":"Kpando","place":"town"},"geometry":{"type":"Point","coordinates":[0.2937,6.99716]}},{"type":"Feature","properties":{"name":"New Town","place":"town"},"geometry":{"type":"Point","coordinates":[-3.09723,5.09125]}},{"type":"Feature","properties":{"name":"Gando Namoni","place":"town"},"geometry":{"type":"Point","coordinates":[0.74727,10.33158]}},{"type":"Feature","properties":{"name":"Nyamassila","place":"town"},"geometry":{"type":"Point","coordinates":[1.1922,7.9882]}},{"type":"Feature","properties":{"name":"Sunyani","place":"city"},"geometry":{"type":"Point","coordinates":[-2.33092,7.33844]}},{"type":"Feature","properties":{"name":"Bongo","place":"town"},"geometry":{"type":"Point","coordinates":[-0.80751,10.90908]}},{"type":"Feature","properties":{"name":"Soe","place":"town"},"geometry":{"type":"Point","coordinates":[-0.78466,10.96268]}},{"type":"Feature","properties":{"name":"Zebilla","place":"town"},"geometry":{"type":"Point","coordinates":[-0.483,10.93995]}},{"type":"Feature","properties":{"name":"Teacher Mante","place":"town"},"geometry":{"type":"Point","coordinates":[-0.38872,5.90297]}},{"type":"Feature","properties":{"name":"Sang","place":"town"},"geometry":{"type":"Point","coordinates":[-0.2788,9.41885]}},{"type":"Feature","properties":{"name":"Garu","place":"town"},"geometry":{"type":"Point","coordinates":[-0.17594,10.85322]}},{"type":"Feature","properties":{"name":"Amou Oblo","place":"town"},"geometry":{"type":"Point","coordinates":[0.86886,7.3893]}},{"type":"Feature","properties":{"name":"Tanguieta","place":"town"},"geometry":{"type":"Point","coordinates":[1.27063,10.6301]}},{"type":"Feature","properties":{"name":"Takpamba","place":"town"},"geometry":{"type":"Point","coordinates":[0.57509,9.96957]}},{"type":"Feature","properties":{"name":"Kumbungu","place":"town"},"geometry":{"type":"Point","coordinates":[-0.94671,9.55913]}},{"type":"Feature","properties":{"name":"Dalun","place":"town"},"geometry":{"type":"Point","coordinates":[-1.00677,9.62471]}},{"type":"Feature","properties":{"name":"Maame Krobo","place":"town"},"geometry":{"type":"Point","coordinates":[-0.43849,6.95228]}},{"type":"Feature","properties":{"name":"Kwasi Fante","place":"town"},"geometry":{"type":"Point","coordinates":[-0.48635,7.03242]}},{"type":"Feature","properties":{"name":"Daboya","place":"town"},"geometry":{"type":"Point","coordinates":[-1.38369,9.53028]}},{"type":"Feature","properties":{"name":"Seikwa","place":"town"},"geometry":{"type":"Point","coordinates":[-2.51539,7.72238]}},{"type":"Feature","properties":{"name":"Assin Fosu","place":"town"},"geometry":{"type":"Point","coordinates":[-1.27691,5.70049]}},{"type":"Feature","properties":{"name":"Jaway Wharf","place":"town"},"geometry":{"type":"Point","coordinates":[-2.94119,5.08628]}},{"type":"Feature","properties":{"name":"Nsawam","place":"town"},"geometry":{"type":"Point","coordinates":[-0.34579,5.81438]}},{"type":"Feature","properties":{"name":"Aboadze","place":"town"},"geometry":{"type":"Point","coordinates":[-1.65008,4.97272]}},{"type":"Feature","properties":{"name":"Aiyinasi","place":"town"},"geometry":{"type":"Point","coordinates":[-2.46279,5.04203]}},{"type":"Feature","properties":{"name":"Bonyere","place":"town"},"geometry":{"type":"Point","coordinates":[-2.72117,5.01803]}},{"type":"Feature","properties":{"name":"Esiama","place":"town"},"geometry":{"type":"Point","coordinates":[-2.34776,4.93662]}},{"type":"Feature","properties":{"name":"Ekumfi Narkwa","place":"town"},"geometry":{"type":"Point","coordinates":[-0.93356,5.20847]}},{"type":"Feature","properties":{"name":"Essarkyir","place":"town"},"geometry":{"type":"Point","coordinates":[-0.89162,5.31752]}},{"type":"Feature","properties":{"name":"Abaasa","place":"town"},"geometry":{"type":"Point","coordinates":[-0.94753,5.36526]}},{"type":"Feature","properties":{"name":"Senya Beraku","place":"town"},"geometry":{"type":"Point","coordinates":[-0.49319,5.39207]}},{"type":"Feature","properties":{"name":"Weija","place":"town"},"geometry":{"type":"Point","coordinates":[-0.33068,5.57923]}},{"type":"Feature","properties":{"name":"Abokobi","place":"town"},"geometry":{"type":"Point","coordinates":[-0.20591,5.73276]}},{"type":"Feature","properties":{"name":"Adenta","place":"town"},"geometry":{"type":"Point","coordinates":[-0.1691,5.70424]}},{"type":"Feature","properties":{"name":"Agbozume","place":"town"},"geometry":{"type":"Point","coordinates":[1.0345,6.07849]}},{"type":"Feature","properties":{"name":"Old Ningo","place":"town"},"geometry":{"type":"Point","coordinates":[0.1875,5.74989]}},{"type":"Feature","properties":{"name":"Dome","place":"town"},"geometry":{"type":"Point","coordinates":[-0.23288,5.65542]}},{"type":"Feature","properties":{"name":"Agona Nsaba","place":"town"},"geometry":{"type":"Point","coordinates":[-0.75012,5.64514]}},{"type":"Feature","properties":{"name":"Odoben","place":"town"},"geometry":{"type":"Point","coordinates":[-0.87924,5.63648]}},{"type":"Feature","properties":{"name":"Afienya","place":"town"},"geometry":{"type":"Point","coordinates":[0.00518,5.79809]}},{"type":"Feature","properties":{"name":"Adukrom","place":"town"},"geometry":{"type":"Point","coordinates":[-0.07663,6.01645]}},{"type":"Feature","properties":{"name":"Akropong","place":"town"},"geometry":{"type":"Point","coordinates":[-0.08917,5.97056]}},{"type":"Feature","properties":{"name":"Assin Bereku","place":"town"},"geometry":{"type":"Point","coordinates":[-1.33896,5.86785]}},{"type":"Feature","properties":{"name":"Akrokerri","place":"town"},"geometry":{"type":"Point","coordinates":[-1.62886,6.29855]}},{"type":"Feature","properties":{"name":"Kade","place":"town"},"geometry":{"type":"Point","coordinates":[-0.83826,6.10002]}},{"type":"Feature","properties":{"name":"Kwabenakwa","place":"town"},"geometry":{"type":"Point","coordinates":[-1.58985,6.21505]}},{"type":"Feature","properties":{"name":"Akwatia","place":"town"},"geometry":{"type":"Point","coordinates":[-0.79714,6.0422]}},{"type":"Feature","properties":{"name":"Kibi","place":"town"},"geometry":{"type":"Point","coordinates":[-0.55029,6.16573]}},{"type":"Feature","properties":{"name":"Suhum","place":"town"},"geometry":{"type":"Point","coordinates":[-0.45528,6.03589]}},{"type":"Feature","properties":{"name":"Akim Abodom","place":"town"},"geometry":{"type":"Point","coordinates":[-0.81867,6.16068]}},{"type":"Feature","properties":{"name":"Kwamang","place":"town"},"geometry":{"type":"Point","coordinates":[-0.71878,6.20861]}},{"type":"Feature","properties":{"name":"Abomosu","place":"town"},"geometry":{"type":"Point","coordinates":[-0.72522,6.30252]}},{"type":"Feature","properties":{"name":"Fenyi Yokoe","place":"town"},"geometry":{"type":"Point","coordinates":[1.03939,6.22241]}},{"type":"Feature","properties":{"name":"Matsekope","place":"town"},"geometry":{"type":"Point","coordinates":[0.44613,5.86819]}},{"type":"Feature","properties":{"name":"Tatale","place":"town"},"geometry":{"type":"Point","coordinates":[0.5266,9.35666]}},{"type":"Feature","properties":{"name":"Bodomasi","place":"town"},"geometry":{"type":"Point","coordinates":[-1.25276,6.8953]}},{"type":"Feature","properties":{"name":"Mpraeso","place":"town"},"geometry":{"type":"Point","coordinates":[-0.73339,6.59661]}},{"type":"Feature","properties":{"name":"Nkawkaw","place":"town"},"geometry":{"type":"Point","coordinates":[-0.76981,6.55279]}},{"type":"Feature","properties":{"name":"Odumase","place":"town"},"geometry":{"type":"Point","coordinates":[-1.22969,6.62187]}},{"type":"Feature","properties":{"name":"Kwahu Nkwatia","place":"town"},"geometry":{"type":"Point","coordinates":[-0.74104,6.63183]}},{"type":"Feature","properties":{"name":"Abetifi","place":"town"},"geometry":{"type":"Point","coordinates":[-0.74384,6.67243]}},{"type":"Feature","properties":{"name":"Mpasatia","place":"town"},"geometry":{"type":"Point","coordinates":[-1.84258,6.66373]}},{"type":"Feature","properties":{"name":"Nkawie","place":"town"},"geometry":{"type":"Point","coordinates":[-1.80973,6.6679]}},{"type":"Feature","properties":{"name":"Akrofuom","place":"town"},"geometry":{"type":"Point","coordinates":[-1.65317,6.1191]}},{"type":"Feature","properties":{"name":"Sekyere Kwamang","place":"town"},"geometry":{"type":"Point","coordinates":[-1.2715,6.97588]}},{"type":"Feature","properties":{"name":"Abirem","place":"town"},"geometry":{"type":"Point","coordinates":[-1.00662,6.3017]}},{"type":"Feature","properties":{"name":"Mankranso","place":"town"},"geometry":{"type":"Point","coordinates":[-1.86264,6.81836]}},{"type":"Feature","properties":{"name":"Hwidiem","place":"town"},"geometry":{"type":"Point","coordinates":[-2.35961,6.93404]}},{"type":"Feature","properties":{"name":"Asempanaye","place":"town"},"geometry":{"type":"Point","coordinates":[-2.90737,6.50169]}},{"type":"Feature","properties":{"name":"Nkaseim","place":"town"},"geometry":{"type":"Point","coordinates":[-2.44708,6.86332]}},{"type":"Feature","properties":{"name":"Sefwi Dwenasi","place":"town"},"geometry":{"type":"Point","coordinates":[-2.48272,6.22059]}},{"type":"Feature","properties":{"name":"WASA JUABO","place":"town"},"geometry":{"type":"Point","coordinates":[-2.21358,6.09097]}},{"type":"Feature","properties":{"name":"Sefwi Akontombra","place":"town"},"geometry":{"type":"Point","coordinates":[-2.87601,6.04255]}},{"type":"Feature","properties":{"name":"Akotombra Nkwanta","place":"town"},"geometry":{"type":"Point","coordinates":[-2.94233,5.97795]}},{"type":"Feature","properties":{"name":"Amoya","place":"town"},"geometry":{"type":"Point","coordinates":[-2.93846,6.24313]}},{"type":"Feature","properties":{"name":"Antubia","place":"town"},"geometry":{"type":"Point","coordinates":[-2.84483,6.32172]}},{"type":"Feature","properties":{"name":"Dadieso","place":"town"},"geometry":{"type":"Point","coordinates":[-3.03433,6.11558]}},{"type":"Feature","properties":{"name":"Lom\u00e9","place":"city"},"geometry":{"type":"Point","coordinates":[1.21583,6.13042]}},{"type":"Feature","properties":{"name":"New Tafo Akim","place":"town"},"geometry":{"type":"Point","coordinates":[-0.36553,6.22229]}},{"type":"Feature","properties":{"name":"Nankese","place":"town"},"geometry":{"type":"Point","coordinates":[-0.37774,6.09176]}},{"type":"Feature","properties":{"name":"Abenaso","place":"town"},"geometry":{"type":"Point","coordinates":[-0.74319,6.21753]}},{"type":"Feature","properties":{"name":"Dormaa Ahenkro","place":"town"},"geometry":{"type":"Point","coordinates":[-2.87326,7.27123]}},{"type":"Feature","properties":{"name":"Nsuta","place":"town"},"geometry":{"type":"Point","coordinates":[-1.38297,7.01108]}},{"type":"Feature","properties":{"name":"Bomini","place":"town"},"geometry":{"type":"Point","coordinates":[-1.65548,7.72797]}},{"type":"Feature","properties":{"name":"Apesika","place":"town"},"geometry":{"type":"Point","coordinates":[-1.54465,7.99806]}},{"type":"Feature","properties":{"name":"Poase Cement","place":"town"},"geometry":{"type":"Point","coordinates":[0.52067,7.65816]}},{"type":"Feature","properties":{"name":"Lemu Ntrubuso","place":"town"},"geometry":{"type":"Point","coordinates":[-0.61529,7.7595]}},{"type":"Feature","properties":{"name":"Jasikan","place":"town"},"geometry":{"type":"Point","coordinates":[0.47057,7.41121]}},{"type":"Feature","properties":{"name":"Saboba","place":"town"},"geometry":{"type":"Point","coordinates":[0.31665,9.70487]}},{"type":"Feature","properties":{"name":"Tali","place":"town"},"geometry":{"type":"Point","coordinates":[-1.11691,9.45006]}},{"type":"Feature","properties":{"name":"Chirifoyili","place":"town"},"geometry":{"type":"Point","coordinates":[-1.13805,9.48686]}},{"type":"Feature","properties":{"name":"Kpendua","place":"town"},"geometry":{"type":"Point","coordinates":[-1.26288,9.50588]}},{"type":"Feature","properties":{"name":"Wantugu","place":"town"},"geometry":{"type":"Point","coordinates":[-1.14687,9.51464]}},{"type":"Feature","properties":{"name":"Yoggo","place":"town"},"geometry":{"type":"Point","coordinates":[-1.09552,9.48161]}},{"type":"Feature","properties":{"name":"Nyankpala","place":"town"},"geometry":{"type":"Point","coordinates":[-0.98146,9.40046]}},{"type":"Feature","properties":{"name":"Gbulung","place":"town"},"geometry":{"type":"Point","coordinates":[-1.01125,9.48721]}},{"type":"Feature","properties":{"name":"Cobli","place":"town"},"geometry":{"type":"Point","coordinates":[1.00817,10.48925]}},{"type":"Feature","properties":{"name":"Karaga","place":"town"},"geometry":{"type":"Point","coordinates":[-0.43166,9.92678]}},{"type":"Feature","properties":{"name":"Tampion","place":"town"},"geometry":{"type":"Point","coordinates":[-0.67844,9.58256]}},{"type":"Feature","properties":{"name":"Zoggu","place":"town"},"geometry":{"type":"Point","coordinates":[-0.71736,9.66914]}},{"type":"Feature","properties":{"name":"Biung","place":"town"},"geometry":{"type":"Point","coordinates":[-0.66765,10.68211]}},{"type":"Feature","properties":{"name":"Materi","place":"town"},"geometry":{"type":"Point","coordinates":[1.06309,10.69617]}},{"type":"Feature","properties":{"name":"Pusiga","place":"town"},"geometry":{"type":"Point","coordinates":[-0.12769,11.0854]}},{"type":"Feature","properties":{"name":"Bazua","place":"town"},"geometry":{"type":"Point","coordinates":[-0.35578,11.00228]}},{"type":"Feature","properties":{"name":"Nasuan","place":"town"},"geometry":{"type":"Point","coordinates":[-0.16391,10.51391]}},{"type":"Feature","properties":{"name":"Medie","place":"town"},"geometry":{"type":"Point","coordinates":[-0.3223,5.76191]}},{"type":"Feature","properties":{"name":"Adjen Kotoku","place":"town"},"geometry":{"type":"Point","coordinates":[-0.36057,5.73633]}},{"type":"Feature","properties":{"name":"Dassari","place":"town"},"geometry":{"type":"Point","coordinates":[1.14393,10.81145]}},{"type":"Feature","properties":{"name":"Pagala Gare","place":"town"},"geometry":{"type":"Point","coordinates":[0.97732,8.17872]}},{"type":"Feature","properties":{"name":"Abakoase","place":"town"},"geometry":{"type":"Point","coordinates":[-0.63143,6.41939]}},{"type":"Feature","properties":{"name":"Kara","place":"city"},"geometry":{"type":"Point","coordinates":[1.19775,9.54888]}},{"type":"Feature","properties":{"name":"Ayam\u00e9","place":"town"},"geometry":{"type":"Point","coordinates":[-3.15719,5.60602]}},{"type":"Feature","properties":{"name":"Tomegb\u00e9","place":"town"},"geometry":{"type":"Point","coordinates":[0.60433,7.50915]}},{"type":"Feature","properties":{"name":"Asutsuare","place":"town"},"geometry":{"type":"Point","coordinates":[0.19499,6.09254]}},{"type":"Feature","properties":{"name":"Sokpoe","place":"town"},"geometry":{"type":"Point","coordinates":[0.58064,5.99273]}},{"type":"Feature","properties":{"name":"Nungua","place":"town"},"geometry":{"type":"Point","coordinates":[-0.07039,5.60114]}},{"type":"Feature","properties":{"name":"Kumawu","place":"town"},"geometry":{"type":"Point","coordinates":[-1.27791,6.91046]}},{"type":"Feature","properties":{"name":"Bondoukou","place":"city"},"geometry":{"type":"Point","coordinates":[-2.79843,8.0398]}},{"type":"Feature","properties":{"name":"Kwahu Pepease","place":"town"},"geometry":{"type":"Point","coordinates":[-0.73436,6.69296]}},{"type":"Feature","properties":{"name":"Transua","place":"town"},"geometry":{"type":"Point","coordinates":[-3.01366,7.5495]}},{"type":"Feature","properties":{"name":"Nsuaem Kyekyewere","place":"town"},"geometry":{"type":"Point","coordinates":[-1.15799,5.45779]}},{"type":"Feature","properties":{"name":"No\u00e9","place":"town"},"geometry":{"type":"Point","coordinates":[-2.79445,5.29041]}},{"type":"Feature","properties":{"name":"Moritan","place":"town"},"geometry":{"type":"Point","coordinates":[1.3497,8.10484]}},{"type":"Feature","properties":{"name":"Aflao","place":"town"},"geometry":{"type":"Point","coordinates":[1.1914,6.11605]}},{"type":"Feature","properties":{"name":"Denu","place":"town"},"geometry":{"type":"Point","coordinates":[1.14773,6.10126]}},{"type":"Feature","properties":{"name":"Adafienu","place":"town"},"geometry":{"type":"Point","coordinates":[1.137,6.09116]}},{"type":"Feature","properties":{"name":"Keta","place":"town"},"geometry":{"type":"Point","coordinates":[0.99107,5.92157]}},{"type":"Feature","properties":{"name":"Bogofa","place":"town"},"geometry":{"type":"Point","coordinates":[-3.15899,8.60598]}},{"type":"Feature","properties":{"name":"Kpando Fesi","place":"town"},"geometry":{"type":"Point","coordinates":[0.29899,7.0367]}},{"type":"Feature","properties":{"name":"Bekwai","place":"town"},"geometry":{"type":"Point","coordinates":[-1.58375,6.45671]}},{"type":"Feature","properties":{"name":"Tokor","place":"town"},"geometry":{"type":"Point","coordinates":[1.13178,6.11593]}},{"type":"Feature","properties":{"name":"Apam","place":"town"},"geometry":{"type":"Point","coordinates":[-0.73798,5.2833]}},{"type":"Feature","properties":{"name":"Ayanfuri","place":"town"},"geometry":{"type":"Point","coordinates":[-1.89515,5.9602]}},{"type":"Feature","properties":{"name":"Zabr\u00e9","place":"town"},"geometry":{"type":"Point","coordinates":[-0.63399,11.18502]}},{"type":"Feature","properties":{"name":"Nyankumasi Ahenkro","place":"town"},"geometry":{"type":"Point","coordinates":[-1.14897,5.38013]}},{"type":"Feature","properties":{"name":"Nsumia","place":"town"},"geometry":{"type":"Point","coordinates":[-0.35041,5.78413]}},{"type":"Feature","properties":{"name":"Busua","place":"town"},"geometry":{"type":"Point","coordinates":[-1.93888,4.80666]}},{"type":"Feature","properties":{"name":"Ezim\u00e9","place":"town"},"geometry":{"type":"Point","coordinates":[0.9378,7.48819]}},{"type":"Feature","properties":{"name":"Prampram","place":"town"},"geometry":{"type":"Point","coordinates":[0.10614,5.71491]}},{"type":"Feature","properties":{"name":"Sege","place":"town"},"geometry":{"type":"Point","coordinates":[0.36169,5.87495]}},{"type":"Feature","properties":{"name":"Agona-Nkwanta","place":"town"},"geometry":{"type":"Point","coordinates":[-1.96641,4.89015]}},{"type":"Feature","properties":{"name":"Mpohor","place":"town"},"geometry":{"type":"Point","coordinates":[-1.8928,4.97059]}},{"type":"Feature","properties":{"name":"Namon","place":"town"},"geometry":{"type":"Point","coordinates":[0.80973,9.72795]}},{"type":"Feature","properties":{"name":"Insu","place":"town"},"geometry":{"type":"Point","coordinates":[-1.93422,5.59127]}},{"type":"Feature","properties":{"name":"Elubo","place":"town"},"geometry":{"type":"Point","coordinates":[-2.77255,5.28894]}},{"type":"Feature","properties":{"name":"Daboase","place":"town"},"geometry":{"type":"Point","coordinates":[-1.65976,5.13898]}},{"type":"Feature","properties":{"name":"Naki-Ouest","place":"town"},"geometry":{"type":"Point","coordinates":[0.09473,10.90567]}},{"type":"Feature","properties":{"name":"Kpeve","place":"town"},"geometry":{"type":"Point","coordinates":[0.33267,6.68517]}},{"type":"Feature","properties":{"name":"Tant\u00e9ga","place":"town"},"geometry":{"type":"Point","coordinates":[1.0259,10.83064]}},{"type":"Feature","properties":{"name":"Todome","place":"town"},"geometry":{"type":"Point","coordinates":[0.29809,6.64209]}},{"type":"Feature","properties":{"name":"Kologon","place":"town"},"geometry":{"type":"Point","coordinates":[0.91666,6.80797]}},{"type":"Feature","properties":{"name":"Jacobu","place":"town"},"geometry":{"type":"Point","coordinates":[-1.67165,6.34546]}},{"type":"Feature","properties":{"name":"Ekyiamemfurom","place":"town"},"geometry":{"type":"Point","coordinates":[-0.5016,6.751]}},{"type":"Feature","properties":{"name":"Bi\u00e9ha","place":"town"},"geometry":{"type":"Point","coordinates":[-1.82376,11.05924]}},{"type":"Feature","properties":{"name":"Tapoga","place":"town"},"geometry":{"type":"Point","coordinates":[0.99047,10.56941]}},{"type":"Feature","properties":{"name":"Twifo Praso","place":"town"},"geometry":{"type":"Point","coordinates":[-1.5497,5.61159]}},{"type":"Feature","properties":{"name":"Yawmatwa","place":"town"},"geometry":{"type":"Point","coordinates":[-3.18852,6.7657]}},{"type":"Feature","properties":{"name":"Amoanda","place":"town"},"geometry":{"type":"Point","coordinates":[-1.91054,5.45693]}},{"type":"Feature","properties":{"name":"Huni Valley","place":"town"},"geometry":{"type":"Point","coordinates":[-1.91441,5.47137]}},{"type":"Feature","properties":{"name":"Kyekyewere","place":"town"},"geometry":{"type":"Point","coordinates":[-1.88068,5.50388]}},{"type":"Feature","properties":{"name":"Obuasi","place":"city"},"geometry":{"type":"Point","coordinates":[-1.6894,6.21154]}},{"type":"Feature","properties":{"name":"Nkroful","place":"town"},"geometry":{"type":"Point","coordinates":[-2.32288,4.96769]}},{"type":"Feature","properties":{"name":"Anyano","place":"town"},"geometry":{"type":"Point","coordinates":[-2.09024,4.90043]}},{"type":"Feature","properties":{"name":"Atakpam\u00e9","place":"city"},"geometry":{"type":"Point","coordinates":[1.12195,7.53206]}},{"type":"Feature","properties":{"name":"Madina","place":"town"},"geometry":{"type":"Point","coordinates":[-0.16771,5.6865]}},{"type":"Feature","properties":{"name":"Baifikrom","place":"town"},"geometry":{"type":"Point","coordinates":[-1.0141,5.2916]}},{"type":"Feature","properties":{"name":"Sekondi-Takoradi","place":"city"},"geometry":{"type":"Point","coordinates":[-1.74902,4.92746]}},{"type":"Feature","properties":{"name":"Teshie","place":"town"},"geometry":{"type":"Point","coordinates":[-0.11351,5.58223]}},{"type":"Feature","properties":{"name":"Adidome","place":"town"},"geometry":{"type":"Point","coordinates":[0.50315,6.07305]}},{"type":"Feature","properties":{"name":"Nuamakrom","place":"town"},"geometry":{"type":"Point","coordinates":[-1.46126,5.63721]}},{"type":"Feature","properties":{"name":"Janga","place":"town"},"geometry":{"type":"Point","coordinates":[-0.97603,10.03006]}},{"type":"Feature","properties":{"name":"Akosombo","place":"town"},"geometry":{"type":"Point","coordinates":[0.0509,6.2698]}},{"type":"Feature","properties":{"name":"Amasaman","place":"town"},"geometry":{"type":"Point","coordinates":[-0.29906,5.70329]}},{"type":"Feature","properties":{"name":"Sowutuom","place":"town"},"geometry":{"type":"Point","coordinates":[-0.27884,5.62371]}},{"type":"Feature","properties":{"name":"La","place":"town"},"geometry":{"type":"Point","coordinates":[-0.15764,5.56023]}},{"type":"Feature","properties":{"name":"Pokuase","place":"town"},"geometry":{"type":"Point","coordinates":[-0.28264,5.68921]}},{"type":"Feature","properties":{"name":"Ejisu","place":"town"},"geometry":{"type":"Point","coordinates":[-1.46658,6.71399]}},{"type":"Feature","properties":{"name":"Abura Dunkwa","place":"town"},"geometry":{"type":"Point","coordinates":[-1.17128,5.34035]}},{"type":"Feature","properties":{"name":"Twifo Hemang","place":"town"},"geometry":{"type":"Point","coordinates":[-1.53191,5.48664]}},{"type":"Feature","properties":{"name":"Battor","place":"town"},"geometry":{"type":"Point","coordinates":[0.40417,6.06917]}},{"type":"Feature","properties":{"name":"Shama","place":"town"},"geometry":{"type":"Point","coordinates":[-1.62898,5.01029]}},{"type":"Feature","properties":{"name":"Wassa Akropong","place":"town"},"geometry":{"type":"Point","coordinates":[-2.08618,5.7826]}},{"type":"Feature","properties":{"name":"Larabanga","place":"town"},"geometry":{"type":"Point","coordinates":[-1.85846,9.21938]}},{"type":"Feature","properties":{"name":"Zecco","place":"town"},"geometry":{"type":"Point","coordinates":[-0.84108,11.03822]}},{"type":"Feature","properties":{"name":"Akwidaa","place":"town"},"geometry":{"type":"Point","coordinates":[-2.03453,4.76021]}},{"type":"Feature","properties":{"name":"Eshiem","place":"town"},"geometry":{"type":"Point","coordinates":[-1.73665,5.00589]}},{"type":"Feature","properties":{"name":"Angu","place":"town"},"geometry":{"type":"Point","coordinates":[-1.77415,5.04961]}},{"type":"Feature","properties":{"name":"Manso","place":"town"},"geometry":{"type":"Point","coordinates":[-1.83815,5.0876]}},{"type":"Feature","properties":{"name":"Amantin","place":"town"},"geometry":{"type":"Point","coordinates":[-1.85359,5.12346]}},{"type":"Feature","properties":{"name":"Bonsawire","place":"town"},"geometry":{"type":"Point","coordinates":[-1.95982,5.23794]}},{"type":"Feature","properties":{"name":"Esuaso","place":"town"},"geometry":{"type":"Point","coordinates":[-1.93227,5.1975]}},{"type":"Feature","properties":{"name":"Peposo","place":"town"},"geometry":{"type":"Point","coordinates":[-2.14597,5.32973]}},{"type":"Feature","properties":{"name":"Kejeberi","place":"town"},"geometry":{"type":"Point","coordinates":[-1.83447,4.90949]}},{"type":"Feature","properties":{"name":"Asuofia","place":"town"},"geometry":{"type":"Point","coordinates":[-1.68401,6.76892]}},{"type":"Feature","properties":{"name":"Tsito Awudome","place":"town"},"geometry":{"type":"Point","coordinates":[0.27898,6.52989]}},{"type":"Feature","properties":{"name":"Awudome Tsito","place":"town"},"geometry":{"type":"Point","coordinates":[0.28878,6.54264]}},{"type":"Feature","properties":{"name":"Peki","place":"town"},"geometry":{"type":"Point","coordinates":[0.22745,6.52311]}},{"type":"Feature","properties":{"name":"Kasapin","place":"town"},"geometry":{"type":"Point","coordinates":[-2.80708,6.94284]}},{"type":"Feature","properties":{"name":"Asumura","place":"town"},"geometry":{"type":"Point","coordinates":[-2.76112,6.70048]}},{"type":"Feature","properties":{"name":"Kwahu Kotoso","place":"town"},"geometry":{"type":"Point","coordinates":[-0.64083,6.73484]}},{"type":"Feature","properties":{"name":"Bokuruwa","place":"town"},"geometry":{"type":"Point","coordinates":[-0.69386,6.67073]}},{"type":"Feature","properties":{"name":"Torve","place":"town"},"geometry":{"type":"Point","coordinates":[0.76017,6.09701]}},{"type":"Feature","properties":{"name":"Manfe","place":"town"},"geometry":{"type":"Point","coordinates":[-0.56274,6.60361]}},{"type":"Feature","properties":{"name":"Nyameyeadom","place":"town"},"geometry":{"type":"Point","coordinates":[-2.79662,6.71584]}},{"type":"Feature","properties":{"name":"Ebenezer","place":"town"},"geometry":{"type":"Point","coordinates":[-2.78606,6.70655]}},{"type":"Feature","properties":{"name":"Yawhima","place":"town"},"geometry":{"type":"Point","coordinates":[-2.2509,7.34464]}},{"type":"Feature","properties":{"name":"Ntotroso","place":"town"},"geometry":{"type":"Point","coordinates":[-2.31857,7.06444]}},{"type":"Feature","properties":{"name":"Subi","place":"town"},"geometry":{"type":"Point","coordinates":[-0.83513,6.13014]}},{"type":"Feature","properties":{"name":"Gbawe","place":"town"},"geometry":{"type":"Point","coordinates":[-0.31282,5.58488]}},{"type":"Feature","properties":{"name":"Nsowaakrom","place":"town"},"geometry":{"type":"Point","coordinates":[-3.13377,6.77434]}},{"type":"Feature","properties":{"name":"Wiaga","place":"town"},"geometry":{"type":"Point","coordinates":[-1.26296,10.65669]}},{"type":"Feature","properties":{"name":"Gbintiri","place":"town"},"geometry":{"type":"Point","coordinates":[-0.09934,10.30705]}},{"type":"Feature","properties":{"name":"Krobo","place":"town"},"geometry":{"type":"Point","coordinates":[-0.78878,6.23598]}},{"type":"Feature","properties":{"name":"Amanfrom","place":"town"},"geometry":{"type":"Point","coordinates":[-0.77273,6.23207]}},{"type":"Feature","properties":{"name":"Dadieso","place":"town"},"geometry":{"type":"Point","coordinates":[-1.99345,5.86791]}},{"type":"Feature","properties":{"name":"Katanga","place":"town"},"geometry":{"type":"Point","coordinates":[-0.78301,10.80712]}},{"type":"Feature","properties":{"name":"Kranka","place":"town"},"geometry":{"type":"Point","coordinates":[-1.81087,7.67259]}},{"type":"Feature","properties":{"name":"Goi","place":"town"},"geometry":{"type":"Point","coordinates":[0.41251,5.79338]}},{"type":"Feature","properties":{"name":"Akplabanya","place":"town"},"geometry":{"type":"Point","coordinates":[0.35404,5.78916]}},{"type":"Feature","properties":{"name":"Anyaman","place":"town"},"geometry":{"type":"Point","coordinates":[0.37214,5.79228]}},{"type":"Feature","properties":{"name":"Bedabour","place":"town"},"geometry":{"type":"Point","coordinates":[-2.53624,6.72921]}},{"type":"Feature","properties":{"name":"New Sayereso","place":"town"},"geometry":{"type":"Point","coordinates":[-2.76924,6.59571]}},{"type":"Feature","properties":{"name":"Fiaso","place":"town"},"geometry":{"type":"Point","coordinates":[-1.81458,7.57878]}},{"type":"Feature","properties":{"name":"Barekese","place":"town"},"geometry":{"type":"Point","coordinates":[-1.73417,6.85027]}},{"type":"Feature","properties":{"name":"Kpedze","place":"town"},"geometry":{"type":"Point","coordinates":[0.49622,6.84171]}},{"type":"Feature","properties":{"name":"Oyarifa","place":"town"},"geometry":{"type":"Point","coordinates":[-0.17649,5.7441]}},{"type":"Feature","properties":{"name":"Sakumono","place":"town"},"geometry":{"type":"Point","coordinates":[-0.05702,5.6253]}},{"type":"Feature","properties":{"name":"Tontokrom","place":"town"},"geometry":{"type":"Point","coordinates":[-1.99488,6.24928]}},{"type":"Feature","properties":{"name":"Asonkore","place":"town"},"geometry":{"type":"Point","coordinates":[-1.60419,6.20252]}},{"type":"Feature","properties":{"name":"Ablekuma","place":"town"},"geometry":{"type":"Point","coordinates":[-0.3135,5.62793]}},{"type":"Feature","properties":{"name":"Achimfo","place":"town"},"geometry":{"type":"Point","coordinates":[-2.72537,5.78294]}},{"type":"Feature","properties":{"name":"Abokyea","place":"town"},"geometry":{"type":"Point","coordinates":[-2.74445,5.77263]}},{"type":"Feature","properties":{"name":"New Yakasi","place":"town"},"geometry":{"type":"Point","coordinates":[-2.86385,5.8116]}},{"type":"Feature","properties":{"name":"Legon","place":"town"},"geometry":{"type":"Point","coordinates":[-0.19603,5.64766]}},{"type":"Feature","properties":{"name":"Assin Ochiso","place":"town"},"geometry":{"type":"Point","coordinates":[-1.08669,5.4705]}},{"type":"Feature","properties":{"name":"Offinso","place":"town"},"geometry":{"type":"Point","coordinates":[-1.6671,6.93138]}},{"type":"Feature","properties":{"name":"Sankore","place":"town"},"geometry":{"type":"Point","coordinates":[-2.5001,6.5021]}},{"type":"Feature","properties":{"name":"Nsuaem","place":"town"},"geometry":{"type":"Point","coordinates":[-2.02829,5.00521]}},{"type":"Feature","properties":{"name":"Akropong","place":"town"},"geometry":{"type":"Point","coordinates":[-1.73057,6.74184]}},{"type":"Feature","properties":{"name":"Assin Nsuta","place":"town"},"geometry":{"type":"Point","coordinates":[-1.22922,5.62668]}},{"type":"Feature","properties":{"name":"Agordeke","place":"town"},"geometry":{"type":"Point","coordinates":[0.11962,7.05654]}},{"type":"Feature","properties":{"name":"Breman Brakwa","place":"town"},"geometry":{"type":"Point","coordinates":[-0.98965,5.7059]}},{"type":"Feature","properties":{"name":"Sakyikrom","place":"town"},"geometry":{"type":"Point","coordinates":[-0.36127,5.81028]}},{"type":"Feature","properties":{"name":"Akuse","place":"town"},"geometry":{"type":"Point","coordinates":[0.12753,6.10016]}},{"type":"Feature","properties":{"name":"Kenyasi","place":"town"},"geometry":{"type":"Point","coordinates":[-2.38363,6.97808]}},{"type":"Feature","properties":{"name":"Drobo","place":"town"},"geometry":{"type":"Point","coordinates":[-2.78581,7.58458]}},{"type":"Feature","properties":{"name":"Busunya","place":"town"},"geometry":{"type":"Point","coordinates":[-1.65933,7.68873]}},{"type":"Feature","properties":{"name":"Aboabo","place":"town"},"geometry":{"type":"Point","coordinates":[-0.23505,6.11857]}},{"type":"Feature","properties":{"name":"Kwesimintsim","place":"town"},"geometry":{"type":"Point","coordinates":[-1.78693,4.91406]}},{"type":"Feature","properties":{"name":"Prestea","place":"town"},"geometry":{"type":"Point","coordinates":[-2.14236,5.43365]}},{"type":"Feature","properties":{"name":"Asesewa","place":"town"},"geometry":{"type":"Point","coordinates":[-0.14228,6.39694]}},{"type":"Feature","properties":{"name":"New Abirem","place":"town"},"geometry":{"type":"Point","coordinates":[-0.99804,6.3443]}},{"type":"Feature","properties":{"name":"Pankese","place":"town"},"geometry":{"type":"Point","coordinates":[-0.84484,6.5114]}},{"type":"Feature","properties":{"name":"Mamponteng","place":"town"},"geometry":{"type":"Point","coordinates":[-1.56636,6.78645]}},{"type":"Feature","properties":{"name":"Adansi Asokwa","place":"town"},"geometry":{"type":"Point","coordinates":[-1.50841,6.24673]}},{"type":"Feature","properties":{"name":"Manso Nkwanta","place":"town"},"geometry":{"type":"Point","coordinates":[-1.88603,6.46898]}},{"type":"Feature","properties":{"name":"Klo-Agogo","place":"town"},"geometry":{"type":"Point","coordinates":[-0.22489,6.25006]}},{"type":"Feature","properties":{"name":"Assin Manso","place":"town"},"geometry":{"type":"Point","coordinates":[-1.16542,5.52261]}},{"type":"Feature","properties":{"name":"Babianiha","place":"town"},"geometry":{"type":"Point","coordinates":[-2.96855,7.28574]}},{"type":"Feature","properties":{"name":"Koluedor","place":"town"},"geometry":{"type":"Point","coordinates":[0.42628,5.88324]}},{"type":"Feature","properties":{"name":"Ada Kasseh","place":"town"},"geometry":{"type":"Point","coordinates":[0.5219,5.89751]}},{"type":"Feature","properties":{"name":"Bodomase","place":"town"},"geometry":{"type":"Point","coordinates":[-1.25145,6.89554]}},{"type":"Feature","properties":{"name":"Afosu","place":"town"},"geometry":{"type":"Point","coordinates":[-0.99797,6.37395]}},{"type":"Feature","properties":{"name":"Wassa Dunkwa","place":"town"},"geometry":{"type":"Point","coordinates":[-2.53215,5.77352]}},{"type":"Feature","properties":{"name":"Hiawa","place":"town"},"geometry":{"type":"Point","coordinates":[-2.16322,5.62057]}},{"type":"Feature","properties":{"name":"Bawdie","place":"town"},"geometry":{"type":"Point","coordinates":[-2.09615,5.63553]}},{"type":"Feature","properties":{"name":"Gblornu","place":"town"},"geometry":{"type":"Point","coordinates":[0.17395,6.10178]}},{"type":"Feature","properties":{"name":"Blonya","place":"town"},"geometry":{"type":"Point","coordinates":[0.18086,6.10052]}},{"type":"Feature","properties":{"name":"Opong Valley","place":"town"},"geometry":{"type":"Point","coordinates":[-1.84699,5.69674]}},{"type":"Feature","properties":{"name":"Datoudjena","place":"town"},"geometry":{"type":"Point","coordinates":[0.0194,10.89339]}},{"type":"Feature","properties":{"name":"Gouloungoussi","place":"town"},"geometry":{"type":"Point","coordinates":[-0.10376,11.11766]}},{"type":"Feature","properties":{"name":"Wompam","place":"town"},"geometry":{"type":"Point","coordinates":[-1.87268,5.97394]}},{"type":"Feature","properties":{"name":"Bosuso","place":"town"},"geometry":{"type":"Point","coordinates":[-0.41148,6.29383]}},{"type":"Feature","properties":{"name":"BimponAgya","place":"town"},"geometry":{"type":"Point","coordinates":[-1.54244,5.66809]}},{"type":"Feature","properties":{"name":"Datano","place":"town"},"geometry":{"type":"Point","coordinates":[-2.49002,6.26356]}},{"type":"Feature","properties":{"name":"Tanoso","place":"town"},"geometry":{"type":"Point","coordinates":[-2.49085,6.24615]}},{"type":"Feature","properties":{"name":"Foase","place":"town"},"geometry":{"type":"Point","coordinates":[-1.75383,6.63526]}},{"type":"Feature","properties":{"name":"Dadease","place":"town"},"geometry":{"type":"Point","coordinates":[-1.98083,6.33064]}},{"type":"Feature","properties":{"name":"Ekoso","place":"town"},"geometry":{"type":"Point","coordinates":[-0.72426,5.90985]}},{"type":"Feature","properties":{"name":"Kpohe Edrokope","place":"town"},"geometry":{"type":"Point","coordinates":[0.75527,6.62272]}},{"type":"Feature","properties":{"name":"New Powmu","place":"town"},"geometry":{"type":"Point","coordinates":[0.08023,6.2612]}},{"type":"Feature","properties":{"name":"Timesu Sisi","place":"town"},"geometry":{"type":"Point","coordinates":[-0.1546,6.51508]}},{"type":"Feature","properties":{"name":"Kwawufoso","place":"town"},"geometry":{"type":"Point","coordinates":[-0.38035,6.82174]}},{"type":"Feature","properties":{"name":"Afosua","place":"town"},"geometry":{"type":"Point","coordinates":[-1.45373,5.63884]}},{"type":"Feature","properties":{"name":"Dogo Ketewa","place":"town"},"geometry":{"type":"Point","coordinates":[0.47611,8.32013]}},{"type":"Feature","properties":{"name":"Amaamaso","place":"town"},"geometry":{"type":"Point","coordinates":[-0.99482,6.32867]}},{"type":"Feature","properties":{"name":"Ntronang","place":"town"},"geometry":{"type":"Point","coordinates":[-1.07732,6.33724]}},{"type":"Feature","properties":{"name":"Ti\u00e9b\u00e9l\u00e9","place":"town"},"geometry":{"type":"Point","coordinates":[-0.9627,11.09537]}},{"type":"Feature","properties":{"name":"Akwamu Abuakwa","place":"town"},"geometry":{"type":"Point","coordinates":[0.08043,6.25628]}},{"type":"Feature","properties":{"name":"Bawdua","place":"town"},"geometry":{"type":"Point","coordinates":[-0.79482,6.05399]}},{"type":"Feature","properties":{"name":"Ehiamankyene","place":"town"},"geometry":{"type":"Point","coordinates":[-0.31978,6.32621]}},{"type":"Feature","properties":{"name":"Anweam New Town","place":"town"},"geometry":{"type":"Point","coordinates":[-0.94501,6.23083]}},{"type":"Feature","properties":{"name":"Odumase","place":"town"},"geometry":{"type":"Point","coordinates":[0.00534,6.13612]}},{"type":"Feature","properties":{"name":"Mampon","place":"town"},"geometry":{"type":"Point","coordinates":[0.00764,6.143]}},{"type":"Feature","properties":{"name":"Odornor","place":"town"},"geometry":{"type":"Point","coordinates":[0.01091,6.14502]}},{"type":"Feature","properties":{"name":"Agomaya","place":"town"},"geometry":{"type":"Point","coordinates":[0.01589,6.1491]}},{"type":"Feature","properties":{"name":"Mayakpongunor","place":"town"},"geometry":{"type":"Point","coordinates":[0.02358,6.15497]}},{"type":"Feature","properties":{"name":"Nuaso","place":"town"},"geometry":{"type":"Point","coordinates":[0.0308,6.1575]}},{"type":"Feature","properties":{"name":"Dwaben","place":"town"},"geometry":{"type":"Point","coordinates":[-0.31373,5.7961]}},{"type":"Feature","properties":{"name":"Owinso","place":"town"},"geometry":{"type":"Point","coordinates":[-0.31146,5.7919]}},{"type":"Feature","properties":{"name":"Adoagyiri","place":"town"},"geometry":{"type":"Point","coordinates":[-0.35509,5.81853]}},{"type":"Feature","properties":{"name":"Abuakwa","place":"town"},"geometry":{"type":"Point","coordinates":[-1.71451,6.69859]}},{"type":"Feature","properties":{"name":"Asokore","place":"town"},"geometry":{"type":"Point","coordinates":[-1.38692,6.84492]}},{"type":"Feature","properties":{"name":"Fiapre","place":"town"},"geometry":{"type":"Point","coordinates":[-2.34713,7.3628]}},{"type":"Feature","properties":{"name":"Wassa Atobiase","place":"town"},"geometry":{"type":"Point","coordinates":[-1.54881,5.35864]}},{"type":"Feature","properties":{"name":"Gyankobo","place":"town"},"geometry":{"type":"Point","coordinates":[-1.45827,5.39961]}},{"type":"Feature","properties":{"name":"Gyankobo","place":"town"},"geometry":{"type":"Point","coordinates":[-1.45827,5.39961]}},{"type":"Feature","properties":{"name":"Agorweme","place":"town"},"geometry":{"type":"Point","coordinates":[0.85311,6.07948]}},{"type":"Feature","properties":{"name":"Mantche","place":"town"},"geometry":{"type":"Point","coordinates":[0.34178,10.3422]}},{"type":"Feature","properties":{"name":"Komenda","place":"town"},"geometry":{"type":"Point","coordinates":[-1.48989,5.05189]}},{"type":"Feature","properties":{"name":"Parambo","place":"town"},"geometry":{"type":"Point","coordinates":[-0.78594,8.13374]}},{"type":"Feature","properties":{"name":"Twifo Mampong","place":"town"},"geometry":{"type":"Point","coordinates":[-1.55551,5.52321]}},{"type":"Feature","properties":{"name":"Wawase","place":"town"},"geometry":{"type":"Point","coordinates":[-1.47942,5.41568]}},{"type":"Feature","properties":{"name":"Ankaako","place":"town"},"geometry":{"type":"Point","coordinates":[-1.44596,5.38644]}},{"type":"Feature","properties":{"name":"Abrem","place":"town"},"geometry":{"type":"Point","coordinates":[-1.42677,5.18634]}},{"type":"Feature","properties":{"name":"Wenchiki","place":"town"},"geometry":{"type":"Point","coordinates":[0.20828,10.27332]}},{"type":"Feature","properties":{"name":"Papaase No.1","place":"town"},"geometry":{"type":"Point","coordinates":[-0.46971,5.62252]}},{"type":"Feature","properties":{"name":"Akposo Kabo","place":"town"},"geometry":{"type":"Point","coordinates":[0.38811,7.61822]}},{"type":"Feature","properties":{"name":"Akposokubi","place":"town"},"geometry":{"type":"Point","coordinates":[0.40029,7.56499]}},{"type":"Feature","properties":{"name":"Manwe","place":"town"},"geometry":{"type":"Point","coordinates":[-2.3183,9.98016]}},{"type":"Feature","properties":{"name":"Abeyee","place":"town"},"geometry":{"type":"Point","coordinates":[-1.47926,5.14382]}},{"type":"Feature","properties":{"name":"Dadiesso","place":"town"},"geometry":{"type":"Point","coordinates":[-2.83041,5.50306]}},{"type":"Feature","properties":{"name":"Moussue","place":"town"},"geometry":{"type":"Point","coordinates":[-2.78922,5.56321]}},{"type":"Feature","properties":{"name":"Nyameasa","place":"town"},"geometry":{"type":"Point","coordinates":[-2.88778,5.46112]}},{"type":"Feature","properties":{"name":"Bamiankor","place":"town"},"geometry":{"type":"Point","coordinates":[-2.16605,5.01414]}},{"type":"Feature","properties":{"name":"Banso","place":"town"},"geometry":{"type":"Point","coordinates":[-2.23823,5.11855]}},{"type":"Feature","properties":{"name":"Abura","place":"town"},"geometry":{"type":"Point","coordinates":[-2.05704,4.90909]}},{"type":"Feature","properties":{"name":"Adiembra","place":"town"},"geometry":{"type":"Point","coordinates":[-1.73486,4.94099]}}]}